{"type":"FeatureCollection","name":"Aree citate in Cosa fare e vedere","features":[{"type":"Feature","properties":{"nome":"Colmello","raggio_m":420,"tipo":"localita","descrizione":"Località da cui prende avvio l’ipotesi di percorso descritta dal Comune di Marcon.","precisione":"Area indicativa attorno al centro della località."},"geometry":{"type":"Point","coordinates":[12.27717,45.55898]}},{"type":"Feature","properties":{"nome":"Parco dello Zero","raggio_m":90,"tipo":"area_verde","descrizione":"Parco comunale lungo lo Zero, raggiunto dal percorso attraverso via Monte Antelao.","precisione":"Area indicativa; non rappresenta un confine catastale o amministrativo."},"geometry":{"type":"Point","coordinates":[12.29865,45.56687]}},{"type":"Feature","properties":{"nome":"Ex campo di volo","raggio_m":300,"tipo":"area_storica","descrizione":"Area dell’ex campo di aviazione della Prima guerra mondiale, citata lungo via Fornace.","precisione":"Posizione e ampiezza indicative: i confini storici non sono rappresentati come ufficiali."},"geometry":{"type":"Point","coordinates":[12.3233,45.5647]}},{"type":"Feature","properties":{"nome":"Oasi Cave di Gaggio Nord","raggio_m":230,"tipo":"area_naturalistica","descrizione":"Area naturalistica delle cave di Gaggio Nord, indicata nel percorso come Oasi LIPU.","precisione":"Area indicativa; per il profilo delle cave usa anche il livello Cave."},"geometry":{"type":"Point","coordinates":[12.3324,45.5607]}},{"type":"Feature","properties":{"nome":"Gaggio","raggio_m":450,"tipo":"frazione","descrizione":"Frazione raggiunta nella parte finale del percorso, con la chiesa di San Bartolomeo.","precisione":"Area indicativa attorno al centro della frazione."},"geometry":{"type":"Point","coordinates":[12.31671,45.55191]}},{"type":"Feature","properties":{"nome":"San Liberale","raggio_m":450,"tipo":"frazione","descrizione":"Frazione attraversata dal percorso lungo l’antica direttrice provinciale.","precisione":"Area indicativa attorno al centro della frazione."},"geometry":{"type":"Point","coordinates":[12.34185,45.54842]}},{"type":"Feature","properties":{"nome":"Poian","raggio_m":280,"tipo":"localita","descrizione":"Toponimo legato all’antica Povegliano Altinate, richiamato nella pagina comunale.","precisione":"Area indicativa attorno al centro della località."},"geometry":{"type":"Point","coordinates":[12.34999,45.56197]}},{"type":"Feature","properties":{"nome":"Le Crete","raggio_m":300,"tipo":"localita","descrizione":"Località di Quarto d’Altino raggiunta con una breve escursione fuori dal territorio comunale.","precisione":"Area indicativa attorno al centro della località."},"geometry":{"type":"Point","coordinates":[12.3497,45.57]}},{"type":"Feature","properties":{"nome":"Zuccarello","raggio_m":500,"tipo":"localita","descrizione":"Area rurale e di bonifica attraversata da via Zuccarello, collegata all’idrovora e a Ponte Alto.","precisione":"Area indicativa: il bacino di bonifica è più ampio e non coincide con questo cerchio."},"geometry":{"type":"Point","coordinates":[12.35412,45.53759]}},{"type":"Feature","properties":{"nome":"Praello","raggio_m":300,"tipo":"localita","descrizione":"Località attraversata verso la Fossa Storta e le cave sud del Praello.","precisione":"Area indicativa attorno al centro della località; le cave sono disponibili nel livello Cave."},"geometry":{"type":"Point","coordinates":[12.32324,45.53656]}}]}