{"type":"FeatureCollection","name":"Luoghi rilevanti lungo il percorso","features":[{"type":"Feature","properties":{"nome":"Colmello","tipo":"localita","descrizione":"Località da cui prende avvio la proposta di percorso.","municipal_url":"https://www.comune.marcon.ve.it/vivere-il-comune/luoghi/frazione-colmello/","wikipedia_url":"https://it.wikipedia.org/wiki/Marcon#Origini_del_nome"},"geometry":{"type":"Point","coordinates":[12.27717,45.55898]}},{"type":"Feature","properties":{"nome":"Parco dello Zero","tipo":"area","descrizione":"Parco comunale lungo il fiume Zero.","municipal_url":"https://www.comune.marcon.ve.it/vivere-il-comune/luoghi/parco-dello-zero/","wikipedia_url":"https://it.wikipedia.org/wiki/Zero_(fiume)","osm_way":27407209},"geometry":{"type":"Point","coordinates":[12.29865,45.56687]}},{"type":"Feature","properties":{"nome":"Ex campo di volo","tipo":"area_storica","descrizione":"Area dell’ex campo di aviazione della Prima guerra mondiale.","municipal_url":"https://www.comune.marcon.ve.it/vivere-il-comune/luoghi/ex-campo-di-volo/","wikipedia_url":"https://it.wikipedia.org/wiki/Campo_di_volo_di_Marcon"},"geometry":{"type":"Point","coordinates":[12.3233,45.5647]}},{"type":"Feature","properties":{"nome":"Gaggio","tipo":"localita","descrizione":"Frazione raggiunta nella parte finale del percorso.","municipal_url":"https://www.comune.marcon.ve.it/vivere-il-comune/luoghi/gaggio/","wikipedia_url":"https://it.wikipedia.org/wiki/Gaggio_(Marcon)"},"geometry":{"type":"Point","coordinates":[12.31671,45.55191]}},{"type":"Feature","properties":{"nome":"San Liberale","tipo":"localita","descrizione":"Frazione attraversata dal percorso lungo l’antica direttrice provinciale.","municipal_url":"https://www.comune.marcon.ve.it/vivere-il-comune/luoghi/san-liberale/","wikipedia_url":"https://it.wikipedia.org/wiki/San_Liberale_(Marcon)"},"geometry":{"type":"Point","coordinates":[12.34185,45.54842]}},{"type":"Feature","properties":{"nome":"Poian","tipo":"localita","descrizione":"Toponimo legato all’antica Povegliano Altinate.","municipal_url":"https://www.comune.marcon.ve.it/vivere-il-comune/territorio/cosa-fare-e-vedere/","wikipedia_url":"https://it.wikipedia.org/wiki/Marcon#Origini_del_nome"},"geometry":{"type":"Point","coordinates":[12.34999,45.56197]}},{"type":"Feature","properties":{"nome":"Le Crete","tipo":"localita","descrizione":"Località di Quarto d’Altino raggiunta con una breve escursione fuori dal territorio comunale.","municipal_url":"https://www.comune.marcon.ve.it/vivere-il-comune/territorio/cosa-fare-e-vedere/","wikipedia_url":"https://it.wikipedia.org/wiki/Quarto_d%27Altino#Geografia_antropica"},"geometry":{"type":"Point","coordinates":[12.3497,45.57]}},{"type":"Feature","properties":{"nome":"Zuccarello","tipo":"localita","descrizione":"Area rurale e di bonifica attraversata da via Zuccarello.","municipal_url":"https://www.comune.marcon.ve.it/vivere-il-comune/luoghi/frazione-zuccarello/","wikipedia_url":"https://it.wikipedia.org/wiki/Marcon#Origini_del_nome"},"geometry":{"type":"Point","coordinates":[12.35412,45.53759]}},{"type":"Feature","properties":{"nome":"Praello","tipo":"localita","descrizione":"Località attraversata verso la Fossa Storta e le cave sud del Praello.","municipal_url":"https://www.comune.marcon.ve.it/vivere-il-comune/luoghi/frazione-praello/","wikipedia_url":"https://it.wikipedia.org/wiki/Marcon#Origini_del_nome"},"geometry":{"type":"Point","coordinates":[12.32324,45.53656]}},{"type":"Feature","properties":{"nome":"Chiesa di San Giorgio","tipo":"edificio","descrizione":"Chiesa arcipretale di San Giorgio Martire in Piazza IV Novembre.","municipal_url":"https://www.comune.marcon.ve.it/vivere-il-comune/luoghi/chiesa-arcipretale-di-san-giorgio-martire/","wikipedia_url":"https://it.wikipedia.org/wiki/Marcon","osm_way":133578203},"geometry":{"type":"Point","coordinates":[12.29922,45.56525]}},{"type":"Feature","properties":{"nome":"Tempietto di San Giuseppe","tipo":"edificio","descrizione":"Oratorio del Transito di San Giuseppe, costruito nel 1694.","municipal_url":"https://www.comune.marcon.ve.it/vivere-il-comune/territorio/cosa-fare-e-vedere/","wikipedia_url":"https://it.wikipedia.org/wiki/Marcon","osm_lookup":{"kind":"place_of_worship","radius":120}},"geometry":{"type":"Point","coordinates":[12.30342,45.56327]}},{"type":"Feature","properties":{"nome":"Chiesa di San Liberale","tipo":"edificio","descrizione":"Chiesa parrocchiale di San Liberale.","municipal_url":"https://www.comune.marcon.ve.it/vivere-il-comune/luoghi/chiesa-di-san-liberale/","wikipedia_url":"https://it.wikipedia.org/wiki/San_Liberale_(Marcon)","osm_lookup":{"kind":"church","radius":90}},"geometry":{"type":"Point","coordinates":[12.341917,45.548944]}},{"type":"Feature","properties":{"nome":"Capitello Maria Regina della Pace","tipo":"monumento","descrizione":"Capitello dedicato a Maria Regina della Pace lungo via Pojanon.","municipal_url":"https://www.comune.marcon.ve.it/vivere-il-comune/territorio/cosa-fare-e-vedere/","wikipedia_url":"https://it.wikipedia.org/wiki/Marcon","osm_lookup":{"kind":"wayside_shrine","radius":250}},"geometry":{"type":"Point","coordinates":[12.35705,45.55637]}},{"type":"Feature","properties":{"nome":"Idrovora Zuccarello","tipo":"infrastruttura","descrizione":"Idrovora ancora funzionante, legata alle opere di bonifica locale.","municipal_url":"https://www.comune.marcon.ve.it/vivere-il-comune/territorio/cosa-fare-e-vedere/","wikipedia_url":"https://it.wikipedia.org/wiki/Marcon","osm_lookup":{"kind":"pumping_station","radius":120}},"geometry":{"type":"Point","coordinates":[12.3774639,45.53745]}},{"type":"Feature","properties":{"nome":"Chiesa di San Bartolomeo","tipo":"edificio","descrizione":"Chiesa parrocchiale di San Bartolomeo Apostolo nella piazza di Gaggio.","municipal_url":"https://www.comune.marcon.ve.it/vivere-il-comune/luoghi/chiesa-di-san-bortolomeo-apostolo/","wikipedia_url":"https://it.wikipedia.org/wiki/Gaggio_(Marcon)","osm_way":133581110},"geometry":{"type":"Point","coordinates":[12.3172,45.55176]}}]}