{"type":"FeatureCollection","features":[{"type":"Feature","properties":{"nome":"Lo Zero","categoria":"corso_d_acqua"},"geometry":{"type":"LineString","coordinates":[[12.27440852581739,45.56257389563672],[12.27484061434577,45.56261774392024],[12.27522281705667,45.56281514783972],[12.27551415780018,45.56282829701522],[12.27573660043014,45.5626901186176],[12.27636604718863,45.56263966611795],[12.27673675634742,45.56222210246911],[12.27693726230929,45.56219138785321],[12.27780104505014,45.56228126465992],[12.27851218692265,45.56220010100717],[12.28011270950693,45.56236461866389],[12.28089299271375,45.56246503179787],[12.2820239332683,45.56235097396714],[12.28393283758986,45.56200952155831],[12.28442321765078,45.56197348042806],[12.28579852380789,45.56215772386166],[12.28633383964064,45.56216289568946],[12.28653748337182,45.56204006957724],[12.28687268931949,45.56180100353565],[12.28716402891977,45.56178564970469],[12.2874835754727,45.56195452917507],[12.2879597633639,45.56205980792078],[12.2883627576094,45.56229462702808],[12.28875757270148,45.56289135465394],[12.28898977453038,45.56321856488074],[12.28992708165344,45.56344982637822],[12.29056355870239,45.5636994747414],[12.29166171783866,45.56382795723337],[12.29274681528624,45.56404607846364],[12.29362100514457,45.56463324522207],[12.2948386060563,45.56550293069067],[12.29548596300572,45.56589561693926],[12.29664045411791,45.56636093095014],[12.29843172330291,45.56702424631436],[12.29969502569177,45.56789595638143],[12.30096181801383,45.56856042363876],[12.30221767434687,45.56901357431269],[12.30448906435316,45.56901899234091],[12.30641608378849,45.56910370984647],[12.30688024730858,45.56919511452438],[12.30767486497047,45.56975002047021],[12.30870785206449,45.57063732641014],[12.3101144066368,45.57157100017082],[12.31045161862267,45.57179540873154],[12.31065317687794,45.57183203838525],[12.31197306354169,45.57176014361867],[12.31332108819129,45.57162883123735],[12.3138527228387,45.57170615899458],[12.31485861167984,45.57137511938148],[12.31589352372456,45.57113391153885],[12.31646933334153,45.57083393338788],[12.31701394161998,45.57078916092646],[12.31773105351878,45.57084207183235],[12.31870807269599,45.57074623227041],[12.31964302844777,45.57050151410265],[12.32028647513206,45.57018131775082],[12.32121673476937,45.57005812856918],[12.32160046768272,45.5695683494974],[12.32234080025384,45.56880857320316],[12.32362618254818,45.56770031875151],[12.32398083338003,45.56761891163142],[12.32514888527226,45.56752464760427],[12.32619452387255,45.5663459485755],[12.32703385746018,45.56551149910883],[12.32802220487146,45.56509227397024],[12.32915968847975,45.56469845234008],[12.33012651727875,45.56429048053972],[12.33044690123519,45.56394248731645],[12.33168454642156,45.5636605671648],[12.33316558746796,45.56334989160874],[12.33384903784318,45.56279255194228],[12.33452994317035,45.56211585098034],[12.33500435437064,45.56168878985877],[12.33552857875212,45.56146720827837],[12.33581363836815,45.56139545376582],[12.33615729798314,45.56149875844186],[12.33698668432886,45.56197441714421],[12.33868230467074,45.56234365688574],[12.34037973966474,45.56274662453447],[12.34106674542034,45.56304761790445],[12.34155215993509,45.56337250716637],[12.34257047448427,45.56371214536942],[12.34461698670413,45.56385051631825],[12.34612227564929,45.5639423267462],[12.34665461192167,45.56370517871102],[12.34766986979683,45.5633464413399],[12.34931481647805,45.56303124249295],[12.3501800028213,45.56267075482619],[12.35039570910245,45.56206910518401],[12.35085934465236,45.56183858652398],[12.35165037721463,45.56165524685552],[12.35251950607332,45.56184891783825],[12.35352522599843,45.56186562206671],[12.35578583999256,45.56182805482743],[12.35853388258388,45.56169231942293],[12.35989381608432,45.56157177263444],[12.36124958426293,45.56119542173815],[12.3616977237281,45.56119425268631],[12.36202620589329,45.56144096993841],[12.3634924675513,45.56172949457396],[12.36423560707626,45.56167623848638],[12.36528078810715,45.56082110313055],[12.36693215991977,45.56030465115092],[12.36864568394479,45.55986785333142],[12.3708270533285,45.55859669840173],[12.37301894848216,45.55739610489243],[12.37358604568366,45.55667893878717],[12.37341601107964,45.55615847011374],[12.37314452709163,45.55559903771504],[12.37316841020223,45.55490280410531],[12.37366698960806,45.5543008070915],[12.37426118110736,45.55418998744173],[12.37468518091248,45.55453078537048],[12.37484345271929,45.5549322212897],[12.37518385704138,45.55493986578308],[12.37581381106739,45.55444646007342],[12.37674547949902,45.55435025399846],[12.37804742689435,45.55434777213385],[12.37846030155271,45.5541217909967],[12.37901081091767,45.55422268485577],[12.37959088121922,45.55491092468642],[12.38002288882274,45.55496384680501],[12.38074254090031,45.55406758310387],[12.38146215309566,45.55380737563494],[12.38232922211271,45.55385281508159],[12.3829249481585,45.55309697243725],[12.38231742140611,45.55249394503237],[12.38176800276252,45.55215468043769],[12.38182697912197,45.55182013369041],[12.38226934482773,45.55133687878153],[12.38209829747463,45.55065125120202],[12.38205772868224,45.55020343850989],[12.38261803771853,45.55007126518035],[12.38340837378572,45.55027364753319],[12.38418102417516,45.55044712290576],[12.38473542176714,45.5499886473242],[12.38535470445913,45.54950126211619],[12.38558604219807,45.54913288872361],[12.3854856143008,45.5486373244806],[12.38559192264876,45.54792683634113],[12.38432978656186,45.5480342345776],[12.38342742697313,45.5480342345776],[12.38266661753441,45.54774509447736],[12.38231866120551,45.54738574421949],[12.3823010482866,45.54681294388796],[12.38170538832612,45.54661467418675],[12.38121588577122,45.5463461828079],[12.38128080169246,45.54578859384663],[12.38090866126575,45.54529418213232],[12.3810021204836,45.54487135013786],[12.38110985939266,45.54449523797294],[12.38091526837065,45.54371873376961],[12.38068340773551,45.54333453194894],[12.37956291760523,45.54329320692828],[12.37913512942017,45.54303076395711],[12.37865330960233,45.54238320654293],[12.37771996191354,45.54203772795629],[12.37673190880825,45.54146633215048],[12.37663663125942,45.54031592220347],[12.3769390519421,45.5397204720536],[12.37733186743465,45.5390198182859],[12.37779771556126,45.53865635480944],[12.3791657838694,45.53852004894407],[12.37932497702996,45.53801615089789]]}},{"type":"Feature","properties":{"nome":"Fossa Storta","categoria":"corso_d_acqua"},"geometry":{"type":"LineString","coordinates":[[12.27388003789962,45.55712907026947],[12.27423056575938,45.55703768142614],[12.27468351408793,45.55655951016669],[12.2751385206628,45.55635285516114],[12.2756606867735,45.55649517898228],[12.27580317931131,45.55669785971096],[12.2761321895855,45.55662696785106],[12.2762577325472,45.55646131632222],[12.27610312214297,45.55626866105374],[12.27600205519994,45.55604885367777],[12.27610379156572,45.55588305138714],[12.27634864622039,45.55572808087403],[12.27661668155911,45.55589296997234],[12.27674424784199,45.55595693793173],[12.27689838183874,45.55597097202497],[12.27705162150003,45.55592320317513],[12.27716153201446,45.55577418771992],[12.27709070968777,45.55562975202498],[12.27683136882744,45.555442344188],[12.27666727943236,45.55530343507534],[12.27667118078198,45.55517560210477],[12.27682732718964,45.55500238918021],[12.27708796340937,45.55503033197908],[12.27737681798958,45.55518472755968],[12.27767201548568,45.5555527876073],[12.27789460953162,45.55564876834526],[12.27807627384762,45.55560919595445],[12.27815932734122,45.55551568742443],[12.27820509444457,45.55520945289389],[12.2783009340042,45.55506055690027],[12.27847131377647,45.55505037124339],[12.27871777973983,45.55511811581486],[12.27894309157862,45.55527189961257],[12.27911886526482,45.55534519292194],[12.27928197931059,45.55532984831839],[12.27933246090176,45.55522434551294],[12.27938728465554,45.55502615219248],[12.2794178666229,45.55486222253655],[12.27956198077165,45.55476980394607],[12.27970743277047,45.55478173815258],[12.27990931945342,45.55491270365074],[12.27998905166642,45.55509862209473],[12.28022481289508,45.55518295203872],[12.28057906840402,45.55524354904984],[12.28080776743268,45.55522896240291],[12.28100216857687,45.55516843526702],[12.2810740665548,45.55507959471491],[12.28108912800573,45.55491620510837],[12.28097020602821,45.55469904816007],[12.28103268667436,45.55452276981741],[12.28119578263199,45.55446740859739],[12.28142263510458,45.55450430590945],[12.28165702627393,45.55461718439413],[12.2817671857502,45.55463544347602],[12.28211074141385,45.55456784812386],[12.28231202123995,45.55448223369926],[12.28244533853313,45.55435631882319],[12.28256524731263,45.55419442902399],[12.28250409309132,45.55406019796872],[12.2821893723503,45.55407146041193],[12.28191472423795,45.5540345815988],[12.28146443723411,45.55386220615726],[12.28107872645716,45.55375094687522],[12.28103513652341,45.55362866835744],[12.2810761202346,45.5534587190442],[12.28130803498943,45.55334317580419],[12.28161140919512,45.55323418892086],[12.28162479586968,45.55305591401644],[12.28144427471162,45.55302085848458],[12.28114576401641,45.55307124849833],[12.28094805664204,45.55310322850774],[12.28082263952108,45.55301001237821],[12.28080568353434,45.55279562438829],[12.28084432964191,45.5525905891004],[12.28091750441709,45.55245399474495],[12.28111942845531,45.55228341097713],[12.28135618345566,45.55228924277715],[12.2815925099606,45.55229506395838],[12.2818163064811,45.55224809810367],[12.28193706040192,45.55206448322121],[12.28204432360255,45.55185718157899],[12.28229031017595,45.55190197781641],[12.28245181924329,45.55200836545029],[12.28265681122686,45.55203966078186],[12.28283631050811,45.55192111484902],[12.28294919213398,45.55172617832102],[12.28287989065754,45.5515659446936],[12.28273578136085,45.55131093535963],[12.2827828186112,45.55108397792713],[12.28291489330075,45.55099760529605],[12.2833066133523,45.55106796779965],[12.28357374785345,45.55108784157277],[12.28379987191274,45.55095182259142],[12.28368751485924,45.55062129724739],[12.28368844494715,45.55042102195855],[12.28407826469067,45.55042754608372],[12.28447939254039,45.55039903761391],[12.28495610123421,45.55054515095426],[12.28517632256105,45.55064929146464],[12.28526732812054,45.55055940844199],[12.28520934541536,45.55037253374366],[12.28508678777797,45.55010143945808],[12.28513422021892,45.54992193202366],[12.28532545108331,45.54982086577887],[12.28554422340837,45.54991775917255],[12.28566218492726,45.55007699500573],[12.28578994077252,45.55021922019719],[12.28595761949145,45.55020313121357],[12.28623350824121,45.55011171532845],[12.2864664061408,45.55010498782021],[12.2867251645097,45.55012115968061],[12.28689560259479,45.55002592777474],[12.28699788416465,45.54979529622943],[12.28706932887034,45.54974826992418],[12.28728171060133,45.54978955017488],[12.28737419496106,45.54998610829462],[12.28755364815954,45.55008500699465],[12.28792330629803,45.55016805374446],[12.28826353206574,45.55017589393112],[12.28852475100491,45.55013636610325],[12.28897204072576,45.55002199785123],[12.28935474880108,45.54993664941176],[12.28971969173705,45.54983969171286],[12.28985862043892,45.54977301418258],[12.29003699774119,45.54947044406522],[12.29023616925961,45.54928843203427],[12.2907557132686,45.54930862551474],[12.29097646703536,45.54944416127058],[12.29103916212839,45.54963127615739],[12.29100176776313,45.5497292683313],[12.29114685821917,45.54977649584592],[12.29135786204448,45.54972835059655],[12.29141959477533,45.5495680179055],[12.29154654458345,45.54938481847901],[12.29170454167126,45.54946530441084],[12.29173779614889,45.54958589900246],[12.2918384993091,45.54976507633666],[12.29200381494386,45.54987266004637],[12.29227160101573,45.54995124216992],[12.29245662468024,45.54999047208829],[12.29357416959289,45.54990283795488],[12.29384304136198,45.54992317542938],[12.29405148328238,45.54993734917933],[12.29415549624263,45.54983489326736],[12.29404084836236,45.54950292924697],[12.29393493522035,45.54941402164636],[12.29391462478342,45.54917106453663],[12.29405986663175,45.54904628279719],[12.29436724461018,45.54916721378612],[12.29463325297936,45.5492391061208],[12.29487923563261,45.54926810826087],[12.29510709117437,45.54927676748022],[12.29524046321366,45.54912845966023],[12.29539117505977,45.54887808739418],[12.29526558155241,45.54872606983093],[12.29525921694171,45.5486151710424],[12.29542431962003,45.54853714326442],[12.29571821961415,45.54833159881747],[12.29577703718422,45.54819525296423],[12.29583454754364,45.54796705641925],[12.29597941779551,45.54787732264431],[12.29630588331452,45.54784882728042],[12.29644615608635,45.54799746048281],[12.29652350250677,45.54818360444138],[12.29670419506667,45.54830288571403],[12.29692749867457,45.54836364236537],[12.2971547150871,45.54836362212998],[12.29733577062505,45.54822483015153],[12.29751700934687,45.54802130147566],[12.29764155830031,45.54793731808184],[12.29785300996165,45.54795760955084],[12.29799392652254,45.5481429322371],[12.29813304750036,45.54832236396248],[12.29835106024028,45.54836965189101],[12.29853203789729,45.54829776604477],[12.29863858007604,45.54810946628942],[12.29865774852345,45.54790436072691],[12.29865963076283,45.54772974362697],[12.29880691928038,45.54761406720171],[12.29904189576806,45.54765025526696],[12.29919534259225,45.54780448818433],[12.29925669898769,45.54799155978425],[12.29937345982648,45.54812083109475],[12.29961112318668,45.54815436271641],[12.29983189777422,45.54808387221108],[12.29994354544766,45.54792118285219],[12.30006438974499,45.5477572242649],[12.30026871867405,45.54772017523497],[12.30048282520418,45.54784069654257],[12.30064034934899,45.54800170796465],[12.30081378285024,45.54805559087309],[12.30101457259046,45.5479544860272],[12.30119250500382,45.5477962572238],[12.30129474064497,45.54765690095488],[12.30144735271956,45.5476195401993],[12.30165268350834,45.54770687878041],[12.30178718735121,45.54787667389569],[12.3019387782126,45.54795563313545],[12.30215639653311,45.54791754272231],[12.30234254122164,45.54781537414245],[12.30248920567893,45.54768869451358],[12.30268969074804,45.54769097242245],[12.30287316605515,45.54781236261072],[12.30306185640484,45.54790790613783],[12.30327618762033,45.54783215206013],[12.30347394401347,45.5476812522374],[12.30363115887225,45.54764674312006],[12.30380878774612,45.54774759955322],[12.30394359975674,45.54793406366857],[12.30411154724249,45.54803929559221],[12.30435114654252,45.54800958191259],[12.30456665172208,45.54786495754353],[12.30470400264075,45.54776160541466],[12.30489894326272,45.54777693181056],[12.30507949085952,45.54794026316092],[12.30521608193224,45.54805846982647],[12.30544367661748,45.54806617959254],[12.30563812688702,45.54796971897658],[12.30575644566801,45.54778448303019],[12.30585844407825,45.54764683584563],[12.30606495608815,45.54762813430909],[12.30627152393021,45.54773785087627],[12.30642177627404,45.54789513884371],[12.30659669994913,45.54795349108256],[12.30681168022086,45.54787969806608],[12.30699339890959,45.54772196286827],[12.30712432433465,45.54767471392591],[12.30728860672363,45.54775385025689],[12.30745505740747,45.54792081827567],[12.30761886510892,45.54801914135294],[12.30783807038375,45.54797620875215],[12.30803359734407,45.54783398470665],[12.3081902612244,45.54776363976667],[12.30835826617658,45.5478552890882],[12.30847750146329,45.54803879999999]]}},{"type":"Feature","properties":{"nome":"Cave del Praello","categoria":"cava"},"geometry":{"type":"Polygon","coordinates":[[[12.30833341276515,45.54649367959343],[12.31077296458064,45.54649367959343],[12.31252337947239,45.54515262989921],[12.31439896605438,45.54498324952036],[12.31539115254611,45.54432724788419],[12.31556040743529,45.54345961416162],[12.31650242282398,45.54248830460468],[12.31772207645445,45.54150279384644],[12.31931744035146,45.54094630291478],[12.32093304686552,45.54093761189075],[12.32168308929391,45.54113047198744],[12.32268679647046,45.54120686698019],[12.32422574320574,45.54087709365262],[12.32551858256578,45.54048543992184],[12.32434199319293,45.53925496828199],[12.32130794314832,45.53946037873498],[12.31974950321444,45.53909870806876],[12.31733264823226,45.5387733403319],[12.31410933902388,45.53896314996034],[12.31289202902145,45.53955809671931],[12.31140314371107,45.53987911588906],[12.31072372301653,45.54070694185147],[12.31045237850563,45.5416164830975],[12.31056121331945,45.54255737269657],[12.31131186232191,45.54336699254003],[12.31193958763287,45.54385185849231],[12.31267593325891,45.54445274044869],[12.31145908930784,45.54514970155827],[12.31027925181658,45.54577939910689],[12.30952385536668,45.54608248791995],[12.30833341276515,45.54649367959343]]]}},{"type":"Feature","properties":{"nome":"Cave di Gaggio nord","categoria":"cava"},"geometry":{"type":"Polygon","coordinates":[[[12.32168207289772,45.56397836203407],[12.32291237320641,45.56219546258758],[12.32475785613337,45.56076844489257],[12.32772807784797,45.56031262156285],[12.33082108421798,45.55919644403339],[12.33358282297575,45.55756220533552],[12.3354181559791,45.55677285002449],[12.3372468906249,45.55755671409004],[12.33791267408754,45.55867235512378],[12.33839128459456,45.55988367681794],[12.33810406706948,45.56111596054723],[12.33745035033598,45.56225177693751],[12.33614179280211,45.56316887347852],[12.33404204415366,45.56381610670962],[12.33142430304176,45.56438783097984],[12.32910280288822,45.56487515602199],[12.32679569662136,45.56480094728366],[12.32487942249618,45.564642622768],[12.32339180395863,45.56435121020475],[12.32220604759366,45.56414918622976],[12.32168207289772,45.56397836203407]]]}}]}