{"type":"FeatureCollection","name":"Marcon da sud","features":[{"type":"Feature","properties":{"nome":"Marcon da sud","categoria":"percorso"},"geometry":{"type":"LineString","coordinates":[[12.29257047684871,45.54998108726355],[12.29232822498282,45.54856761515154],[12.2920824268205,45.54745199675121],[12.29193800611081,45.54592865032918],[12.29178081771139,45.54411457089059],[12.29172894690566,45.54266993388514],[12.29177655393102,45.54411572408722],[12.2878523591506,45.54415394448957],[12.28770281389247,45.54322557522984],[12.28749809563449,45.54217594992741],[12.28726296382149,45.5406632187246],[12.28713476568313,45.53977731584513],[12.28719240672676,45.53942638091491],[12.28752201862389,45.53921948231889],[12.28816756998025,45.53908993766639],[12.2886030254208,45.53895832914973],[12.28902070209623,45.53874389675229],[12.28941356105243,45.53847735860321],[12.28979281157955,45.53821759873772],[12.29014306385236,45.53791048683936],[12.29044355074228,45.53756657259255],[12.29077040065255,45.53716572615819],[12.29107393916148,45.53683448499926],[12.29131518431186,45.53661018447335],[12.29152615701748,45.53643806859725],[12.29179194885448,45.53626534471979],[12.29210625524339,45.53612165692727],[12.29250943525387,45.53596840946151],[12.29288656708796,45.5358564457472],[12.2932958938524,45.53576818227639],[12.29381414295753,45.53569819935783],[12.2944681986591,45.53565530195142],[12.29536923148457,45.53562630381684],[12.29625592656752,45.53560652961246],[12.29719331905149,45.53559104407203],[12.29822338765957,45.5355733398412],[12.2992304817637,45.53555918693547],[12.30015341839663,45.53554239254461],[12.30106269855768,45.53553081601398],[12.3018457052259,45.53551436933048],[12.30260012522287,45.53549558143625],[12.30326850381183,45.5354887417972],[12.30382977587232,45.53547792919574],[12.30431064373978,45.53546035446469],[12.30448949491372,45.53558793913486],[12.30452351850296,45.53584645909229],[12.30450141675023,45.53622510835439],[12.30454126534994,45.53662003203057],[12.30462106204434,45.53712254433241],[12.30471014067931,45.53763357537629],[12.30480722102832,45.53820768979459],[12.30493955628709,45.53890688702403],[12.30505077208024,45.53958966385189],[12.30480830657726,45.53957938777932],[12.30406691824143,45.53964002932336],[12.30326703494405,45.53970407010722],[12.30250756440312,45.53976202606048],[12.30180344609958,45.53980718395145],[12.30100603843491,45.53987323028591],[12.30029355874767,45.53993247633031],[12.2996488134262,45.53997902004592],[12.29907321919606,45.54002454405896],[12.29843949831088,45.54006818285451],[12.29784164337014,45.54012160331901],[12.2971890857135,45.5401721528584],[12.29659011906532,45.54022288525635],[12.29591107756354,45.54027361275868],[12.29533261887808,45.54032267263574],[12.29471749540854,45.54037850957194],[12.29414930305019,45.54043134636998],[12.29361136739479,45.54048173203028],[12.29322523342199,45.54052932741115],[12.29287374783471,45.54061136402848],[12.29261831440006,45.54073203746428],[12.29242520362854,45.5408876544956],[12.29227410137135,45.54110062683464],[12.29214970093895,45.54138832539442],[12.29207570096774,45.54169880405044],[12.29201626601083,45.54202949199389],[12.29193110973022,45.54236553784762],[12.29180070064537,45.54267065188155],[12.2918439137241,45.54344082591313],[12.29188450875733,45.54411602764823],[12.2919262136994,45.54480994066955],[12.29197274343576,45.54551782947823],[12.29201358733085,45.54621387160954],[12.29209435661107,45.54718172062168],[12.2884553556374,45.54767218366637],[12.28901948754113,45.54803959700043],[12.28989832067188,45.54859070817896],[12.29045775877333,45.54861016910443],[12.2919239348388,45.54854786786667],[12.29229637357959,45.54861553924177],[12.29255694455405,45.54990996877849]]}}]}