{"type":"FeatureCollection","name":"Percorsi","features":[{"type":"Feature","properties":{"nome":"Proposta di percorso ciclo-turistico","descrizione":"Proposta di percorso ciclo-turistico basata sull’“Ipotesi di un percorso” pubblicata dal Comune di Marcon nella pagina “Cosa fare e vedere”.","categoria":"percorso"},"geometry":{"type":"LineString","coordinates":[[12.27727407376825,45.55891114660833],[12.27749926393651,45.55898278726239],[12.27782173796201,45.55903897018391],[12.27825337844992,45.55913365598592],[12.27891573919066,45.55925925800975],[12.27979951424837,45.55926272124264],[12.28112764586082,45.55930765840203],[12.2814140121307,45.55939407992491],[12.28191762957249,45.55971557073821],[12.28327321800413,45.55978403070114],[12.28449355905493,45.55979780379882],[12.28489320893184,45.55984948294282],[12.28499682174668,45.56002229984314],[12.28512117781307,45.5606073754784],[12.28520549638595,45.56091050147545],[12.28553500786064,45.56115998261111],[12.28607525670972,45.5613236177435],[12.2876079887577,45.56150484879642],[12.28996186850042,45.56174916312935],[12.29110858417522,45.56187733691971],[12.29180569280851,45.56185827486269],[12.29170049492024,45.56252297145954],[12.29163696423212,45.56309053827034],[12.2915583280702,45.56367698729833],[12.29212204765847,45.56374557638687],[12.29282379118186,45.56391334137344],[12.2930841209789,45.56401236180211],[12.29374338075024,45.5644870681593],[12.29447919848931,45.56503484300272],[12.29464728027165,45.5651406252906],[12.29482855746502,45.56513135531371],[12.29528251810114,45.56505339907677],[12.29615078870594,45.56490903989516],[12.29675568249378,45.56482301806284],[12.2968355017324,45.56557180658352],[12.29685270448434,45.56578597460017],[12.29686477374989,45.5663094735461],[12.29834531284141,45.56688095938186],[12.29857578375539,45.56678845712261],[12.29848722165319,45.56671788870382],[12.29846946114561,45.56663450844579],[12.29857705608747,45.56658748011119],[12.29861676348749,45.56650859891735],[12.298528797152,45.56639489743003],[12.29836877014999,45.56628318250792],[12.29830160250082,45.56621594821277],[12.29828138541272,45.56614883642565],[12.29827406377455,45.5660594400563],[12.29825211526438,45.56599311307051],[12.29828425309425,45.56586851481001],[12.29827901771684,45.56573882869635],[12.29824536210001,45.56526560462101],[12.2982192895428,45.56502244820663],[12.29840967705013,45.56499680005163],[12.29839880188367,45.56476086414037],[12.29839055085271,45.56469380675766],[12.29908867593032,45.56473894784781],[12.30012968901763,45.56518989825877],[12.3010715245415,45.56569678746478],[12.30151702733775,45.56584264938958],[12.30161224461008,45.56315607693206],[12.30238430337142,45.56312501069426],[12.30240950793588,45.56304877328201],[12.30357428714726,45.56298676809593],[12.30376439242124,45.56301248358527],[12.30382657824503,45.56297159398797],[12.3037309287934,45.56162847430505],[12.303199703095,45.56164888522148],[12.30314381460893,45.56083444379458],[12.30299932008592,45.56001679000083],[12.30262528733071,45.55842451676347],[12.30224271672839,45.55836959012169],[12.30190477704867,45.5582810032418],[12.30185238355635,45.55825461820854],[12.30188685107005,45.55813926329871],[12.30266502776587,45.55826033493094],[12.30350145698656,45.55833988598252],[12.30398655602696,45.55834683384089],[12.30437897170375,45.55837982983753],[12.30452451350894,45.55834400282131],[12.30461207477317,45.55825057870258],[12.30459189702199,45.5579966896077],[12.30485609802128,45.55799388701083],[12.30491410166489,45.55817244549988],[12.30502053063891,45.55828389133916],[12.30524919886132,45.55833931899048],[12.30678165769633,45.55819969063496],[12.30729501848181,45.55814070575389],[12.30751273828868,45.55818819232728],[12.30905619150341,45.55793589714361],[12.30909502924052,45.55803136842086],[12.30977667930313,45.55789332051155],[12.31020515788649,45.5577939749661],[12.31049330463401,45.55771855485668],[12.31189004216103,45.5585056165361],[12.31262268749709,45.55890007560811],[12.31337818371082,45.55926362697704],[12.31501128533085,45.55979976750508],[12.31587496269954,45.56000966129838],[12.31670777863165,45.56016218315933],[12.31850418044284,45.56045615599989],[12.32027476777573,45.56078297568575],[12.32073346246924,45.56098092470641],[12.32112204104481,45.56121289065099],[12.32184856542073,45.56166400171499],[12.32235071043308,45.56194798535191],[12.32273487861873,45.56282484697945],[12.32105455080977,45.56309653082706],[12.32205851773409,45.5654047389699],[12.32306838142444,45.56758768466242],[12.32328506992702,45.56763816765095],[12.32367617339907,45.56748468682201],[12.32415349557807,45.56749681733118],[12.32455330686807,45.56746297690767],[12.32415398318441,45.56749552819219],[12.32367707153205,45.56748553459417],[12.32328069666115,45.56764077102365],[12.32309259901077,45.56760856968645],[12.32205134556601,45.56539262261517],[12.32101591631922,45.56307847329628],[12.32274349363135,45.56283848167051],[12.32235462542623,45.56194660612838],[12.32111809980841,45.56121604517784],[12.32028785994825,45.56078754911078],[12.318517977995,45.56045332648873],[12.31670354550071,45.56016689373541],[12.31499929133827,45.55979900339577],[12.31338268397915,45.55925747399412],[12.31261668102685,45.55890047740281],[12.31049607801831,45.55772004050289],[12.30909199782144,45.55803551086166],[12.30905052018644,45.55793595990705],[12.30995372038147,45.55775247883545],[12.30950683161016,45.55655964266887],[12.30918486113938,45.55535534503948],[12.30851873695511,45.55314863147907],[12.30931929374898,45.55303493496144],[12.30952002034535,45.55296288647682],[12.30985143537151,45.55319477340301],[12.31029068266209,45.55290464171157],[12.31070827346471,45.5528062211018],[12.31346658262257,45.55225787924048],[12.31391665443681,45.55211152498723],[12.31460457316389,45.55168868574085],[12.31512194818601,45.55148481360906],[12.31563807779482,45.5513681449002],[12.31806752868646,45.55384888191418],[12.32015446343562,45.55743077825303],[12.32110096929145,45.55924322011884],[12.32173113633618,45.56037498025916],[12.32195502235004,45.56103703087771],[12.31807760032961,45.5538586688517],[12.31834590960352,45.55388914127812],[12.31851299262868,45.55383831600527],[12.31886341818369,45.55369467343874],[12.31945803836818,45.55334897360824],[12.32094365533103,45.55293319482268],[12.32408365150978,45.55265331159193],[12.32489247874677,45.55257744095098],[12.32560061542902,45.55236794446476],[12.32569148545982,45.55241346442519],[12.32589153000223,45.55235355116506],[12.32599368711188,45.55234370580201],[12.32603833365127,45.55236827652367],[12.32593967839249,45.55240279738351],[12.3258396869935,45.55245263006709],[12.32583089533081,45.55251564930861],[12.32586470998648,45.55256521801651],[12.32591437247738,45.55259510235132],[12.32631280595713,45.55248555048706],[12.32644775815974,45.55237784038525],[12.32663652994229,45.55222977557361],[12.32772230987697,45.5528669572346],[12.3278388834373,45.55278423561489],[12.3266913771113,45.5521128499434],[12.32701780272452,45.55201878898423],[12.32848332899146,45.5514426000086],[12.32881566288798,45.55129435574278],[12.32918975204703,45.55119164972763],[12.32995724670628,45.55108706578036],[12.33141374255766,45.55070682824522],[12.33181465830504,45.55062372621222],[12.33220193364228,45.55059957807622],[12.33257624226262,45.55054906969259],[12.33301415465123,45.55054304569244],[12.33340505809131,45.5505240329019],[12.33379860607939,45.55046821848252],[12.33455525260884,45.55028299414113],[12.33528371827541,45.5500494017293],[12.33597826159888,45.54979914641951],[12.33879712988729,45.5488041791546],[12.33939807952251,45.54861911293708],[12.34026696160655,45.54855843091434],[12.34190798073385,45.54846053391567],[12.34346604303057,45.54838133618303],[12.343874127233,45.5484434073633],[12.34420539512222,45.54859085186744],[12.34453630577706,45.54880986863719],[12.34476833293607,45.54905048277569],[12.34654320274169,45.5525301325681],[12.34773444893896,45.55592391255269],[12.349262552355,45.55583639047128],[12.35077297556881,45.55564140421152],[12.3537937253205,45.55519635647968],[12.35481280587087,45.55711665022891],[12.35653908885407,45.55666534968042],[12.3582319077544,45.55623313000264],[12.35481311101905,45.55712548569013],[12.35379154473359,45.55518925079993],[12.35078691579302,45.55564803417576],[12.3492586581015,45.55583029616005],[12.34773793369192,45.55592350836449],[12.34655306934243,45.55252324767586],[12.34476435532782,45.54903965692871],[12.34454784636481,45.54880920170052],[12.34425881795266,45.54859304064529],[12.34386999349197,45.54844186686711],[12.34346772858397,45.54839381743823],[12.34246988046138,45.54842731684202],[12.34247282122397,45.54830883940343],[12.34275404821663,45.54827702328919],[12.34280255597082,45.54817334564041],[12.34252716837787,45.54746093414376],[12.34217760496194,45.54660441029937],[12.342203252917,45.54491309611409],[12.34385622812905,45.54315331943886],[12.34496651657333,45.54253183948213],[12.34554633462584,45.5423059878491],[12.3461359251725,45.54218293701654],[12.34841453359017,45.54171043125317],[12.34904252148968,45.54162285144535],[12.34956781706117,45.54142685100225],[12.35042246633333,45.5408901667567],[12.35085913707795,45.54057305071615],[12.35084414665807,45.54027809351158],[12.35071018512562,45.5400204577107],[12.35047247208353,45.53956081604359],[12.35038202976096,45.53930085827145],[12.35060542996503,45.53908968391143],[12.35196432637581,45.53863066406169],[12.3527761019678,45.5383494302967],[12.35313677596391,45.53805607546186],[12.35377429345808,45.53788625214445],[12.35464887779721,45.53777795729461],[12.35549030696625,45.53754847068934],[12.35599997214108,45.53748531034448],[12.35903839029533,45.53744126248814],[12.36495951921649,45.53729102867111],[12.37092943754741,45.53743547278351],[12.37393750792865,45.53757412734389],[12.37545811951912,45.53767110072706],[12.37612632976181,45.53770460951419],[12.37091868943297,45.53739363894968],[12.36493455084405,45.53728519684249],[12.35907943880996,45.53742351283194],[12.35551316732488,45.53752829283247],[12.35493154901662,45.53773618556867],[12.35420241222945,45.53782560267388],[12.35354588634474,45.53794648520785],[12.35317099318996,45.53810073400503],[12.35278460349656,45.53764422317816],[12.35252266184219,45.53714919038251],[12.35252338511553,45.53687860489207],[12.35235694168845,45.53662834511685],[12.35205466190603,45.53614430293486],[12.35043163264672,45.53348399484747],[12.34928250970274,45.53371928490036],[12.34875278180699,45.53344326385698],[12.34858118400154,45.53291865123384],[12.34814941470375,45.53265030917906],[12.34756790791179,45.53258703574437],[12.34568644982522,45.53379414192957],[12.34497493399281,45.53318865113867],[12.34460053215152,45.53283743395004],[12.34409751157754,45.53271801224242],[12.34202240268768,45.53295114796767],[12.3402244546124,45.53308826885346],[12.33932568019511,45.53320372266777],[12.33852310463138,45.53354079326712],[12.33823090330603,45.53380027029765],[12.33777226827572,45.53398847729995],[12.33726987983946,45.53385650914008],[12.3367789467558,45.53389590488334],[12.33601835803062,45.53424442693404],[12.33518057720262,45.53446798998034],[12.33425905755739,45.53466661956346],[12.33328377890374,45.53477079937026],[12.33275449465153,45.53483377559976],[12.33225311222575,45.53464915897157],[12.33139459965144,45.5341852821351],[12.33103441045044,45.53339230533243],[12.33015258589318,45.53302317258837],[12.32926664261346,45.53266139699481],[12.32880712850316,45.53255405617047],[12.32830160272742,45.53253300730951],[12.32735471470349,45.53263918736784],[12.32647869384813,45.53286137908633],[12.32555341522344,45.53315115682906],[12.32460962500366,45.53312571435217],[12.32354119502561,45.53316608326534],[12.32307919211236,45.53317369520352],[12.32265455384204,45.53304522602475],[12.32175342737295,45.532754673444],[12.32117570976642,45.53204778818139],[12.32075880506324,45.53148722918876],[12.32070001577011,45.5308318511087],[12.32015085962051,45.53017784518526],[12.3204935456543,45.5295626207047],[12.320100198668,45.52867682752011],[12.31967113871143,45.52825054851741],[12.31935595573488,45.52788347811264],[12.31850342519975,45.52705541180314],[12.31779793163384,45.52677555868857],[12.3145325813935,45.52615593339375],[12.31377575924267,45.52607315535943],[12.31334550247734,45.52623468665162],[12.31225444538562,45.52643124133717],[12.31123129513926,45.52685255166072],[12.31009085961424,45.52745615787412],[12.30948255499575,45.52751342053563],[12.30819927162278,45.52732501067473],[12.30683932781921,45.52744667987368],[12.30428505105769,45.5276052293656],[12.30411767941217,45.52872999113887],[12.30471525987929,45.52874294808195],[12.30530052313068,45.52881211028635],[12.30589766354493,45.52889958361181],[12.30641788733985,45.52873293075262],[12.30689214124896,45.52840331199571],[12.30748452088087,45.52827973411475],[12.30812545634051,45.52836498469213],[12.3087276594405,45.52856180980537],[12.30992071140582,45.52871610150783],[12.31049044314359,45.52897190842258],[12.3108036577754,45.52900307178545],[12.31110438315118,45.52897829684557],[12.311389901028,45.52896537432157],[12.31167315752488,45.52906545273352],[12.31215585738003,45.529311907234],[12.31313892570365,45.52977855803861],[12.31345196810046,45.52977742704577],[12.31374365246584,45.52973449371733],[12.31435698033123,45.52963635600142],[12.31569436941481,45.53018067814152],[12.31597642933959,45.53034128891552],[12.31621368155956,45.5305300273968],[12.31639590345643,45.5305128253596],[12.3166255201825,45.5303305253465],[12.31700301669549,45.53054616295808],[12.31726971056987,45.53079629296055],[12.31711276154769,45.53110440787478],[12.3170477751653,45.5312492085484],[12.31709685651033,45.53139185246315],[12.31745408461317,45.53160150905882],[12.32125578798266,45.53343659649362],[12.32154855361469,45.53347693125941],[12.32154466850144,45.53359895074999],[12.32180140470634,45.53372021211748],[12.32356309367844,45.53740067777438],[12.32568428935159,45.54120067534442]]}}]}